NUSAT-47                
1 66743U 25276CF  26187.71123024  .00004174  00000+0  19403-3 0  9997
2 66743  97.4177 261.0119 0000434 356.7067   3.4166 15.20522231 33399
NUSAT-53 (JANE GOODALL) 
1 68432U 26067S   26187.43932771  .00005314  00000+0  25876-3 0  9997
2 68432  97.4568 145.6745 0001646  16.0047 344.1239 15.18787088 14869
NUSAT-54 (BRANCA MARQU*)
1 68442U 26067AC  26187.68972411  .00004856  00000+0  24251-3 0  9996
2 68442  97.4551 145.7774 0004784  27.0117 333.1365 15.17940949 14898
