{"fetched_at":"2026-07-07T07:58:42.758Z","source":"https://celestrak.org/NORAD/elements/gp.php?NAME=NUSAT&FORMAT=JSON","constellation":"satellogic","records":[{"OBJECT_NAME":"NUSAT-47","OBJECT_ID":"2025-276CF","EPOCH":"2026-07-06T17:04:10.292736","CLASSIFICATION_TYPE":"U","MEAN_MOTION":15.20522231,"ECCENTRICITY":0.0000434,"INCLINATION":97.4177,"RA_OF_ASC_NODE":261.0119,"ARG_OF_PERICENTER":356.7067,"MEAN_ANOMALY":3.4166,"EPHEMERIS_TYPE":0,"NORAD_CAT_ID":66743,"ELEMENT_SET_NO":999,"REV_AT_EPOCH":3339,"BSTAR":0.00019403,"MEAN_MOTION_DOT":0.00004174,"MEAN_MOTION_DDOT":0},{"OBJECT_NAME":"NUSAT-53 (JANE GOODALL)","OBJECT_ID":"2026-067S","EPOCH":"2026-07-06T10:32:37.914144","CLASSIFICATION_TYPE":"U","MEAN_MOTION":15.18787088,"ECCENTRICITY":0.0001646,"INCLINATION":97.4568,"RA_OF_ASC_NODE":145.6745,"ARG_OF_PERICENTER":16.0047,"MEAN_ANOMALY":344.1239,"EPHEMERIS_TYPE":0,"NORAD_CAT_ID":68432,"ELEMENT_SET_NO":999,"REV_AT_EPOCH":1486,"BSTAR":0.00025876,"MEAN_MOTION_DOT":0.00005314,"MEAN_MOTION_DDOT":0},{"OBJECT_NAME":"NUSAT-54 (BRANCA MARQUES)","OBJECT_ID":"2026-067AC","EPOCH":"2026-07-06T16:33:12.163104","CLASSIFICATION_TYPE":"U","MEAN_MOTION":15.17940949,"ECCENTRICITY":0.0004784,"INCLINATION":97.4551,"RA_OF_ASC_NODE":145.7774,"ARG_OF_PERICENTER":27.0117,"MEAN_ANOMALY":333.1365,"EPHEMERIS_TYPE":0,"NORAD_CAT_ID":68442,"ELEMENT_SET_NO":999,"REV_AT_EPOCH":1489,"BSTAR":0.00024251,"MEAN_MOTION_DOT":0.00004856,"MEAN_MOTION_DDOT":0}]}
